{"type": "FeatureCollection", "features": [{"type": "Feature", "properties": {"norad_id": 66549, "name": "SHIJIAN-28 (SJ-28)", "group": "last-30-days", "lat": 4.5651659227504915, "lon": -18.828679821381844, "alt_km": 35785.516641977374, "timestamp": "2025-12-26T08:37:53.288834+00:00", "meta": {"OBJECT_NAME": "SHIJIAN-28 (SJ-28)", "OBJECT_ID": "2025-277A", "EPOCH": "2025-12-25T13:29:07.948320", "MEAN_MOTION": 1.0026485, "ECCENTRICITY": 9.97e-05, "INCLINATION": 4.9871, "RA_OF_ASC_NODE": 274.7549, "ARG_OF_PERICENTER": 127.1328, "MEAN_ANOMALY": 11.4336, "EPHEMERIS_TYPE": 0, "CLASSIFICATION_TYPE": "U", "NORAD_CAT_ID": 66549, "ELEMENT_SET_NO": 999, "REV_AT_EPOCH": 41, "BSTAR": 0, "MEAN_MOTION_DOT": -3.37e-06, "MEAN_MOTION_DDOT": 0}, "tle": {"line1": "1 66549U 25277A   25359.56189755 -.00000337  00000+0  00000+0 0  9995", "line2": "2 66549   4.9871 274.7549 0000997 127.1328  11.4336  1.00264850   417"}}, "geometry": {"type": "Point", "coordinates": [-18.828679821381844, 4.5651659227504915]}}, {"type": "Feature", "properties": {"norad_id": 66550, "name": "CZ-7A R/B", "group": "last-30-days", "lat": 7.740934503246866, "lon": -66.24014155051607, "alt_km": 19795.948225236385, "timestamp": "2025-12-26T08:37:53.288888+00:00", "meta": {"OBJECT_NAME": "CZ-7A R/B", "OBJECT_ID": "2025-277B", "EPOCH": "2025-12-23T05:53:12.433056", "MEAN_MOTION": 3.27661077, "ECCENTRICITY": 0.66094342, "INCLINATION": 14.3426, "RA_OF_ASC_NODE": 263.9223, "ARG_OF_PERICENTER": 200.4471, "MEAN_ANOMALY": 110.5172, "EPHEMERIS_TYPE": 0, "CLASSIFICATION_TYPE": "U", "NORAD_CAT_ID": 66550, "ELEMENT_SET_NO": 999, "REV_AT_EPOCH": 65, "BSTAR": 0.0068493476, "MEAN_MOTION_DOT": 0.10979967, "MEAN_MOTION_DDOT": 1.8894821e-05}, "tle": {"line1": "1 66550U 25277B   25357.24528279  .10979967  18895-4  68493-2 0  9991", "line2": "2 66550  14.3426 263.9223 6609434 200.4471 110.5172  3.27661077   658"}}, "geometry": {"type": "Point", "coordinates": [-66.24014155051607, 7.740934503246866]}}, {"type": "Feature", "properties": {"norad_id": 66554, "name": "GLOBAL-33", "group": "last-30-days", "lat": 8.626676101973272, "lon": -11.94094244223175, "alt_km": 472.264410652936, "timestamp": "2025-12-26T08:37:53.288916+00:00", "meta": {"OBJECT_NAME": "GLOBAL-33", "OBJECT_ID": "2025-267A", "EPOCH": "2025-12-25T23:11:09.479616", "MEAN_MOTION": 15.31778281, "ECCENTRICITY": 0.00048835, "INCLINATION": 42.0212, "RA_OF_ASC_NODE": 340.6327, "ARG_OF_PERICENTER": 183.6559, "MEAN_ANOMALY": 176.4243, "EPHEMERIS_TYPE": 0, "CLASSIFICATION_TYPE": "U", "NORAD_CAT_ID": 66554, "ELEMENT_SET_NO": 999, "REV_AT_EPOCH": 543, "BSTAR": 0.00045946365, "MEAN_MOTION_DOT": 0.00014182, "MEAN_MOTION_DDOT": 0}, "tle": {"line1": "1 66554U 25267A   25359.96608194  .00014182  00000+0  45946-3 0  9991", "line2": "2 66554  42.0212 340.6327 0004883 183.6559 176.4243 15.31778281  5436"}}, "geometry": {"type": "Point", "coordinates": [-11.94094244223175, 8.626676101973272]}}, {"type": "Feature", "properties": {"norad_id": 66557, "name": "STARLINK-35699", "group": "last-30-days", "lat": -17.609539188421365, "lon": -118.41129701052492, "alt_km": 462.5745149566974, "timestamp": "2025-12-26T08:37:53.288930+00:00", "meta": {"OBJECT_NAME": "STARLINK-35699", "OBJECT_ID": "2025-268A", "EPOCH": "2025-12-26T04:00:01.998720", "MEAN_MOTION": 15.35857443, "ECCENTRICITY": 8.6e-05, "INCLINATION": 43.0008, "RA_OF_ASC_NODE": 42.7784, "ARG_OF_PERICENTER": 287.5226, "MEAN_ANOMALY": 290.9255, "EPHEMERIS_TYPE": 0, "CLASSIFICATION_TYPE": "U", "NORAD_CAT_ID": 66557, "ELEMENT_SET_NO": 999, "REV_AT_EPOCH": 605, "BSTAR": -0.062897, "MEAN_MOTION_DOT": -0.01994801, "MEAN_MOTION_DDOT": 0}, "tle": {"line1": "1 66557U 25268A   25360.16668980 -.01994801  00000+0 -62897-1 0  9998", "line2": "2 66557  43.0008  42.7784 0000860 287.5226 290.9255 15.35857443  6052"}}, "geometry": {"type": "Point", "coordinates": [-118.41129701052492, -17.609539188421365]}}, {"type": "Feature", "properties": {"norad_id": 66558, "name": "STARLINK-35695", "group": "last-30-days", "lat": -27.31566439653366, "lon": -104.70388494745782, "alt_km": 460.5018050210547, "timestamp": "2025-12-26T08:37:53.288942+00:00", "meta": {"OBJECT_NAME": "STARLINK-35695", "OBJECT_ID": "2025-268B", "EPOCH": "2025-12-26T04:00:01.998720", "MEAN_MOTION": 15.36674647, "ECCENTRICITY": 0.0001045, "INCLINATION": 43.0006, "RA_OF_ASC_NODE": 42.7423, "ARG_OF_PERICENTER": 274.1835, "MEAN_ANOMALY": 319.6629, "EPHEMERIS_TYPE": 0, "CLASSIFICATION_TYPE": "U", "NORAD_CAT_ID": 66558, "ELEMENT_SET_NO": 999, "REV_AT_EPOCH": 605, "BSTAR": -0.059419, "MEAN_MOTION_DOT": -0.01941745, "MEAN_MOTION_DDOT": 0}, "tle": {"line1": "1 66558U 25268B   25360.16668980 -.01941745  00000+0 -59419-1 0  9994", "line2": "2 66558  43.0006  42.7423 0001045 274.1835 319.6629 15.36674647  6053"}}, "geometry": {"type": "Point", "coordinates": [-104.70388494745782, -27.31566439653366]}}, {"type": "Feature", "properties": {"norad_id": 66559, "name": "STARLINK-35419", "group": "last-30-days", "lat": -36.976179008176835, "lon": -12.442596728268503, "alt_km": 445.747730005839, "timestamp": "2025-12-26T08:37:53.288953+00:00", "meta": {"OBJECT_NAME": "STARLINK-35419", "OBJECT_ID": "2025-268C", "EPOCH": "2025-12-26T04:00:01.998720", "MEAN_MOTION": 15.41839552, "ECCENTRICITY": 0.0001073, "INCLINATION": 43.0006, "RA_OF_ASC_NODE": 42.5664, "ARG_OF_PERICENTER": 256.4813, "MEAN_ANOMALY": 49.6448, "EPHEMERIS_TYPE": 0, "CLASSIFICATION_TYPE": "U", "NORAD_CAT_ID": 66559, "ELEMENT_SET_NO": 999, "REV_AT_EPOCH": 605, "BSTAR": -0.052362, "MEAN_MOTION_DOT": -0.02021165, "MEAN_MOTION_DDOT": 0}, "tle": {"line1": "1 66559U 25268C   25360.16668980 -.02021165  00000+0 -52362-1 0  9991", "line2": "2 66559  43.0006  42.5664 0001073 256.4813  49.6448 15.41839552  6052"}}, "geometry": {"type": "Point", "coordinates": [-12.442596728268503, -36.976179008176835]}}, {"type": "Feature", "properties": {"norad_id": 66560, "name": "STARLINK-35411", "group": "last-30-days", "lat": -33.263626861757096, "lon": -3.3112353403123076, "alt_km": 444.08593868640855, "timestamp": "2025-12-26T08:37:53.288965+00:00", "meta": {"OBJECT_NAME": "STARLINK-35411", "OBJECT_ID": "2025-268D", "EPOCH": "2025-12-26T04:00:01.998720", "MEAN_MOTION": 15.42384097, "ECCENTRICITY": 0.0001149, "INCLINATION": 43.0007, "RA_OF_ASC_NODE": 42.5456, "ARG_OF_PERICENTER": 253.1154, "MEAN_ANOMALY": 60.9971, "EPHEMERIS_TYPE": 0, "CLASSIFICATION_TYPE": "U", "NORAD_CAT_ID": 66560, "ELEMENT_SET_NO": 999, "REV_AT_EPOCH": 605, "BSTAR": -0.052449, "MEAN_MOTION_DOT": -0.02057634, "MEAN_MOTION_DDOT": 0}, "tle": {"line1": "1 66560U 25268D   25360.16668980 -.02057634  00000+0 -52449-1 0  9999", "line2": "2 66560  43.0007  42.5456 0001149 253.1154  60.9971 15.42384097  6057"}}, "geometry": {"type": "Point", "coordinates": [-3.3112353403123076, -33.263626861757096]}}, {"type": "Feature", "properties": {"norad_id": 66561, "name": "STARLINK-35305", "group": "last-30-days", "lat": -20.49144881593244, "lon": 17.732568579786967, "alt_km": 438.44182813065527, "timestamp": "2025-12-26T08:37:53.288976+00:00", "meta": {"OBJECT_NAME": "STARLINK-35305", "OBJECT_ID": "2025-268E", "EPOCH": "2025-12-26T04:00:01.998720", "MEAN_MOTION": 15.44061183, "ECCENTRICITY": 0.0001229, "INCLINATION": 43.0011, "RA_OF_ASC_NODE": 42.4922, "ARG_OF_PERICENTER": 258.3201, "MEAN_ANOMALY": 77.3132, "EPHEMERIS_TYPE": 0, "CLASSIFICATION_TYPE": "U", "NORAD_CAT_ID": 66561, "ELEMENT_SET_NO": 999, "REV_AT_EPOCH": 605, "BSTAR": -0.049538, "MEAN_MOTION_DOT": -0.02057837, "MEAN_MOTION_DDOT": 0}, "tle": {"line1": "1 66561U 25268E   25360.16668980 -.02057837  00000+0 -49538-1 0  9990", "line2": "2 66561  43.0011  42.4922 0001229 258.3201  77.3132 15.44061183  6050"}}, "geometry": {"type": "Point", "coordinates": [17.732568579786967, -20.49144881593244]}}, {"type": "Feature", "properties": {"norad_id": 66562, "name": "STARLINK-35579", "group": "last-30-days", "lat": -27.112751506018462, "lon": 8.072514150707832, "alt_km": 441.22655431520707, "timestamp": "2025-12-26T08:37:53.288992+00:00", "meta": {"OBJECT_NAME": "STARLINK-35579", "OBJECT_ID": "2025-268F", "EPOCH": "2025-12-26T04:00:01.998720", "MEAN_MOTION": 15.43222404, "ECCENTRICITY": 0.0001278, "INCLINATION": 43, "RA_OF_ASC_NODE": 42.5175, "ARG_OF_PERICENTER": 259.9143, "MEAN_ANOMALY": 65.2397, "EPHEMERIS_TYPE": 0, "CLASSIFICATION_TYPE": "U", "NORAD_CAT_ID": 66562, "ELEMENT_SET_NO": 999, "REV_AT_EPOCH": 605, "BSTAR": -0.051024, "MEAN_MOTION_DOT": -0.02059471, "MEAN_MOTION_DDOT": 0}, "tle": {"line1": "1 66562U 25268F   25360.16668980 -.02059471  00000+0 -51024-1 0  9990", "line2": "2 66562  43.0000  42.5175 0001278 259.9143  65.2397 15.43222404  6059"}}, "geometry": {"type": "Point", "coordinates": [8.072514150707832, -27.112751506018462]}}, {"type": "Feature", "properties": {"norad_id": 66563, "name": "STARLINK-35437", "group": "last-30-days", "lat": -13.745819402153401, "lon": 26.13071022112154, "alt_km": 435.5143761285717, "timestamp": "2025-12-26T08:37:53.289003+00:00", "meta": {"OBJECT_NAME": "STARLINK-35437", "OBJECT_ID": "2025-268G", "EPOCH": "2025-12-26T04:00:01.998720", "MEAN_MOTION": 15.44901761, "ECCENTRICITY": 0.0001316, "INCLINATION": 43.0004, "RA_OF_ASC_NODE": 42.4681, "ARG_OF_PERICENTER": 257.6997, "MEAN_ANOMALY": 87.8514, "EPHEMERIS_TYPE": 0, "CLASSIFICATION_TYPE": "U", "NORAD_CAT_ID": 66563, "ELEMENT_SET_NO": 999, "REV_AT_EPOCH": 611, "BSTAR": -0.048305, "MEAN_MOTION_DOT": -0.02064698, "MEAN_MOTION_DDOT": 0}, "tle": {"line1": "1 66563U 25268G   25360.16668980 -.02064698  00000+0 -48305-1 0  9996", "line2": "2 66563  43.0004  42.4681 0001316 257.6997  87.8514 15.44901761  6119"}}, "geometry": {"type": "Point", "coordinates": [26.13071022112154, -13.745819402153401]}}]}